[{"OBJECT_NAME":"ONEWEB-0718","OBJECT_ID":"2023-043AM","EPOCH":"2026-03-09T22:29:05.596512","MEAN_MOTION":13.15547547,"ECCENTRICITY":0.00020033,"INCLINATION":87.8937,"RA_OF_ASC_NODE":279.022,"ARG_OF_PERICENTER":79.869,"MEAN_ANOMALY":280.2666,"EPHEMERIS_TYPE":0,"CLASSIFICATION_TYPE":"U","NORAD_CAT_ID":56081,"ELEMENT_SET_NO":999,"REV_AT_EPOCH":14338,"BSTAR":6.5348167e-5,"MEAN_MOTION_DOT":3.7e-7,"MEAN_MOTION_DDOT":0},{"OBJECT_NAME":"CZ-4C DEB","OBJECT_ID":"2014-080E","EPOCH":"2026-03-09T19:25:12.281952","MEAN_MOTION":13.44626987,"ECCENTRICITY":0.03690125,"INCLINATION":63.388,"RA_OF_ASC_NODE":228.1711,"ARG_OF_PERICENTER":9.8627,"MEAN_ANOMALY":350.9389,"EPHEMERIS_TYPE":0,"CLASSIFICATION_TYPE":"U","NORAD_CAT_ID":40342,"ELEMENT_SET_NO":999,"REV_AT_EPOCH":55191,"BSTAR":0.00012968732,"MEAN_MOTION_DOT":2.4e-7,"MEAN_MOTION_DDOT":0}]
